[
  {
    "COMMENT": "GENERATED VIA SPACETRACK.ORG API",
    "ORIGINATOR": "18 SPCS",
    "NORAD_CAT_ID": "39086",
    "OBJECT_NAME": "SARAL",
    "OBJECT_TYPE": "PAYLOAD",
    "CLASSIFICATION_TYPE": "U",
    "INTLDES": "13009A",
    "EPOCH": "2023-06-12 10:02:49",
    "EPOCH_MICROSECONDS": "243200",
    "MEAN_MOTION": "14.32221956",
    "ECCENTRICITY": "0.0001042",
    "INCLINATION": "98.5478",
    "RA_OF_ASC_NODE": "348.7778",
    "ARG_OF_PERICENTER": "333.7993",
    "MEAN_ANOMALY": "26.3138",
    "EPHEMERIS_TYPE": "0",
    "ELEMENT_SET_NO": "999",
    "REV_AT_EPOCH": "53800",
    "BSTAR": "0.000072287",
    "MEAN_MOTION_DOT": "0.00000151",
    "MEAN_MOTION_DDOT": "0",
    "FILE": "3931089",
    "TLE_LINE0": "0 SARAL",
    "TLE_LINE1": "1 39086U 13009A   23163.41862550  .00000151  00000-0  72287-4 0  9992",
    "TLE_LINE2": "2 39086  98.5478 348.7778 0001042 333.7993  26.3138 14.32221956538001",
    "OBJECT_ID": "2013-009A",
    "OBJECT_NUMBER": "39086",
    "SEMIMAJOR_AXIS": "7162.450",
    "PERIOD": "100.543",
    "APOGEE": "785.062",
    "PERIGEE": "783.569",
    "DECAYED": "0"
  },
  {
    "COMMENT": "GENERATED VIA SPACETRACK.ORG API",
    "ORIGINATOR": "18 SPCS",
    "NORAD_CAT_ID": "39086",
    "OBJECT_NAME": "SARAL",
    "OBJECT_TYPE": "PAYLOAD",
    "CLASSIFICATION_TYPE": "U",
    "INTLDES": "13009A",
    "EPOCH": "2023-06-12 13:24:01",
    "EPOCH_MICROSECONDS": "325088",
    "MEAN_MOTION": "14.32222004",
    "ECCENTRICITY": "0.0001034",
    "INCLINATION": "98.5478",
    "RA_OF_ASC_NODE": "348.9155",
    "ARG_OF_PERICENTER": "333.1706",
    "MEAN_ANOMALY": "26.9424",
    "EPHEMERIS_TYPE": "0",
    "ELEMENT_SET_NO": "999",
    "REV_AT_EPOCH": "53802",
    "BSTAR": "0.00007257",
    "MEAN_MOTION_DOT": "0.00000152",
    "MEAN_MOTION_DDOT": "0",
    "FILE": "3931287",
    "TLE_LINE0": "0 SARAL",
    "TLE_LINE1": "1 39086U 13009A   23163.55834867  .00000152  00000-0  72570-4 0  9993",
    "TLE_LINE2": "2 39086  98.5478 348.9155 0001034 333.1706  26.9424 14.32222004538020",
    "OBJECT_ID": "2013-009A",
    "OBJECT_NUMBER": "39086",
    "SEMIMAJOR_AXIS": "7162.450",
    "PERIOD": "100.543",
    "APOGEE": "785.056",
    "PERIGEE": "783.575",
    "DECAYED": "0"
  },
  {
    "COMMENT": "GENERATED VIA SPACETRACK.ORG API",
    "ORIGINATOR": "18 SPCS",
    "NORAD_CAT_ID": "39086",
    "OBJECT_NAME": "SARAL",
    "OBJECT_TYPE": "PAYLOAD",
    "CLASSIFICATION_TYPE": "U",
    "INTLDES": "13009A",
    "EPOCH": "2023-06-12 21:47:01",
    "EPOCH_MICROSECONDS": "525920",
    "MEAN_MOTION": "14.32222148",
    "ECCENTRICITY": "0.0001015",
    "INCLINATION": "98.5478",
    "RA_OF_ASC_NODE": "349.2597",
    "ARG_OF_PERICENTER": "331.76",
    "MEAN_ANOMALY": "28.3529",
    "EPHEMERIS_TYPE": "0",
    "ELEMENT_SET_NO": "999",
    "REV_AT_EPOCH": "53807",
    "BSTAR": "0.000071177",
    "MEAN_MOTION_DOT": "0.00000148",
    "MEAN_MOTION_DDOT": "0",
    "FILE": "3931605",
    "TLE_LINE0": "0 SARAL",
    "TLE_LINE1": "1 39086U 13009A   23163.90765655  .00000148  00000-0  71177-4 0  9997",
    "TLE_LINE2": "2 39086  98.5478 349.2597 0001015 331.7600  28.3529 14.32222148538076",
    "OBJECT_ID": "2013-009A",
    "OBJECT_NUMBER": "39086",
    "SEMIMAJOR_AXIS": "7162.450",
    "PERIOD": "100.543",
    "APOGEE": "785.042",
    "PERIGEE": "783.588",
    "DECAYED": "0"
  },
  {
    "COMMENT": "GENERATED VIA SPACETRACK.ORG API",
    "ORIGINATOR": "18 SPCS",
    "NORAD_CAT_ID": "39086",
    "OBJECT_NAME": "SARAL",
    "OBJECT_TYPE": "PAYLOAD",
    "CLASSIFICATION_TYPE": "U",
    "INTLDES": "13009A",
    "EPOCH": "2023-06-13 11:11:49",
    "EPOCH_MICROSECONDS": "842240",
    "MEAN_MOTION": "14.32222235",
    "ECCENTRICITY": "0.0000989",
    "INCLINATION": "98.5477",
    "RA_OF_ASC_NODE": "349.8104",
    "ARG_OF_PERICENTER": "329.0514",
    "MEAN_ANOMALY": "31.0612",
    "EPHEMERIS_TYPE": "0",
    "ELEMENT_SET_NO": "999",
    "REV_AT_EPOCH": "53815",
    "BSTAR": "0.000063357",
    "MEAN_MOTION_DOT": "0.00000127",
    "MEAN_MOTION_DDOT": "0",
    "FILE": "3931930",
    "TLE_LINE0": "0 SARAL",
    "TLE_LINE1": "1 39086U 13009A   23164.46654910  .00000127  00000-0  63357-4 0  9998",
    "TLE_LINE2": "2 39086  98.5477 349.8104 0000989 329.0514  31.0612 14.32222235538158",
    "OBJECT_ID": "2013-009A",
    "OBJECT_NUMBER": "39086",
    "SEMIMAJOR_AXIS": "7162.449",
    "PERIOD": "100.543",
    "APOGEE": "785.023",
    "PERIGEE": "783.606",
    "DECAYED": "0"
  },
  {
    "COMMENT": "GENERATED VIA SPACETRACK.ORG API",
    "ORIGINATOR": "18 SPCS",
    "NORAD_CAT_ID": "39086",
    "OBJECT_NAME": "SARAL",
    "OBJECT_TYPE": "PAYLOAD",
    "CLASSIFICATION_TYPE": "U",
    "INTLDES": "13009A",
    "EPOCH": "2023-06-13 12:52:25",
    "EPOCH_MICROSECONDS": "880160",
    "MEAN_MOTION": "14.32222277",
    "ECCENTRICITY": "0.0000984",
    "INCLINATION": "98.5477",
    "RA_OF_ASC_NODE": "349.8793",
    "ARG_OF_PERICENTER": "328.6784",
    "MEAN_ANOMALY": "31.4341",
    "EPHEMERIS_TYPE": "0",
    "ELEMENT_SET_NO": "999",
    "REV_AT_EPOCH": "53816",
    "BSTAR": "0.000064312",
    "MEAN_MOTION_DOT": "0.0000013",
    "MEAN_MOTION_DDOT": "0",
    "FILE": "3932134",
    "TLE_LINE0": "0 SARAL",
    "TLE_LINE1": "1 39086U 13009A   23164.53641065  .00000130  00000-0  64312-4 0  9999",
    "TLE_LINE2": "2 39086  98.5477 349.8793 0000984 328.6784  31.4341 14.32222277538161",
    "OBJECT_ID": "2013-009A",
    "OBJECT_NUMBER": "39086",
    "SEMIMAJOR_AXIS": "7162.449",
    "PERIOD": "100.543",
    "APOGEE": "785.019",
    "PERIGEE": "783.609",
    "DECAYED": "0"
  },
  {
    "COMMENT": "GENERATED VIA SPACETRACK.ORG API",
    "ORIGINATOR": "18 SPCS",
    "NORAD_CAT_ID": "39086",
    "OBJECT_NAME": "SARAL",
    "OBJECT_TYPE": "PAYLOAD",
    "CLASSIFICATION_TYPE": "U",
    "INTLDES": "13009A",
    "EPOCH": "2023-06-13 21:15:26",
    "EPOCH_MICROSECONDS": "71488",
    "MEAN_MOTION": "14.32222411",
    "ECCENTRICITY": "0.0000961",
    "INCLINATION": "98.5477",
    "RA_OF_ASC_NODE": "350.2235",
    "ARG_OF_PERICENTER": "327.0414",
    "MEAN_ANOMALY": "33.071",
    "EPHEMERIS_TYPE": "0",
    "ELEMENT_SET_NO": "999",
    "REV_AT_EPOCH": "53821",
    "BSTAR": "0.000064406",
    "MEAN_MOTION_DOT": "0.0000013",
    "MEAN_MOTION_DDOT": "0",
    "FILE": "3932371",
    "TLE_LINE0": "0 SARAL",
    "TLE_LINE1": "1 39086U 13009A   23164.88571842  .00000130  00000-0  64406-4 0  9996",
    "TLE_LINE2": "2 39086  98.5477 350.2235 0000961 327.0414  33.0710 14.32222411538210",
    "OBJECT_ID": "2013-009A",
    "OBJECT_NUMBER": "39086",
    "SEMIMAJOR_AXIS": "7162.449",
    "PERIOD": "100.543",
    "APOGEE": "785.002",
    "PERIGEE": "783.626",
    "DECAYED": "0"
  },
  {
    "COMMENT": "GENERATED VIA SPACETRACK.ORG API",
    "ORIGINATOR": "18 SPCS",
    "NORAD_CAT_ID": "39086",
    "OBJECT_NAME": "SARAL",
    "OBJECT_TYPE": "PAYLOAD",
    "CLASSIFICATION_TYPE": "U",
    "INTLDES": "13009A",
    "EPOCH": "2023-06-14 14:01:26",
    "EPOCH_MICROSECONDS": "449824",
    "MEAN_MOTION": "14.32222675",
    "ECCENTRICITY": "0.0000925",
    "INCLINATION": "98.5477",
    "RA_OF_ASC_NODE": "350.9119",
    "ARG_OF_PERICENTER": "323.2048",
    "MEAN_ANOMALY": "36.9072",
    "EPHEMERIS_TYPE": "0",
    "ELEMENT_SET_NO": "999",
    "REV_AT_EPOCH": "53831",
    "BSTAR": "0.000065696",
    "MEAN_MOTION_DOT": "0.00000133",
    "MEAN_MOTION_DDOT": "0",
    "FILE": "3932965",
    "TLE_LINE0": "0 SARAL",
    "TLE_LINE1": "1 39086U 13009A   23165.58433391  .00000133  00000-0  65696-4 0  9995",
    "TLE_LINE2": "2 39086  98.5477 350.9119 0000925 323.2048  36.9072 14.32222675538315",
    "OBJECT_ID": "2013-009A",
    "OBJECT_NUMBER": "39086",
    "SEMIMAJOR_AXIS": "7162.448",
    "PERIOD": "100.543",
    "APOGEE": "784.975",
    "PERIGEE": "783.650",
    "DECAYED": "0"
  },
  {
    "COMMENT": "GENERATED VIA SPACETRACK.ORG API",
    "ORIGINATOR": "18 SPCS",
    "NORAD_CAT_ID": "39086",
    "OBJECT_NAME": "SARAL",
    "OBJECT_TYPE": "PAYLOAD",
    "CLASSIFICATION_TYPE": "U",
    "INTLDES": "13009A",
    "EPOCH": "2023-06-14 19:03:14",
    "EPOCH_MICROSECONDS": "560992",
    "MEAN_MOTION": "14.32222742",
    "ECCENTRICITY": "0.0000912",
    "INCLINATION": "98.5477",
    "RA_OF_ASC_NODE": "351.1184",
    "ARG_OF_PERICENTER": "321.9696",
    "MEAN_ANOMALY": "38.1424",
    "EPHEMERIS_TYPE": "0",
    "ELEMENT_SET_NO": "999",
    "REV_AT_EPOCH": "53834",
    "BSTAR": "0.000065131",
    "MEAN_MOTION_DOT": "0.00000132",
    "MEAN_MOTION_DDOT": "0",
    "FILE": "3932995",
    "TLE_LINE0": "0 SARAL",
    "TLE_LINE1": "1 39086U 13009A   23165.79391853  .00000132  00000-0  65131-4 0  9997",
    "TLE_LINE2": "2 39086  98.5477 351.1184 0000912 321.9696  38.1424 14.32222742538343",
    "OBJECT_ID": "2013-009A",
    "OBJECT_NUMBER": "39086",
    "SEMIMAJOR_AXIS": "7162.448",
    "PERIOD": "100.543",
    "APOGEE": "784.966",
    "PERIGEE": "783.659",
    "DECAYED": "0"
  },
  {
    "COMMENT": "GENERATED VIA SPACETRACK.ORG API",
    "ORIGINATOR": "18 SPCS",
    "NORAD_CAT_ID": "39086",
    "OBJECT_NAME": "SARAL",
    "OBJECT_TYPE": "PAYLOAD",
    "CLASSIFICATION_TYPE": "U",
    "INTLDES": "13009A",
    "EPOCH": "2023-06-14 20:43:50",
    "EPOCH_MICROSECONDS": "599776",
    "MEAN_MOTION": "14.32222747",
    "ECCENTRICITY": "0.0000915",
    "INCLINATION": "98.5477",
    "RA_OF_ASC_NODE": "351.1872",
    "ARG_OF_PERICENTER": "322.1075",
    "MEAN_ANOMALY": "38.0044",
    "EPHEMERIS_TYPE": "0",
    "ELEMENT_SET_NO": "999",
    "REV_AT_EPOCH": "53835",
    "BSTAR": "0.000063975",
    "MEAN_MOTION_DOT": "0.00000129",
    "MEAN_MOTION_DDOT": "0",
    "FILE": "3933215",
    "TLE_LINE0": "0 SARAL",
    "TLE_LINE1": "1 39086U 13009A   23165.86378009  .00000129  00000-0  63975-4 0  9993",
    "TLE_LINE2": "2 39086  98.5477 351.1872 0000915 322.1075  38.0044 14.32222747538357",
    "OBJECT_ID": "2013-009A",
    "OBJECT_NUMBER": "39086",
    "SEMIMAJOR_AXIS": "7162.448",
    "PERIOD": "100.543",
    "APOGEE": "784.968",
    "PERIGEE": "783.657",
    "DECAYED": "0"
  }
]